HULIANWANG DIGUI-134    
1 67242U 25311G   26014.91974490 -.00000041  00000+0  84743-4 0  9994
2 67242  50.0053 316.3033 0006696 330.2431  29.8086 13.90195421  2783
HULIANWANG DIGUI-135    
1 67243U 25311H   26014.99371443 -.00000050  00000+0  77464-4 0  9994
2 67243  50.0039 316.0244 0007914 332.9474  27.1011 13.90184409  2793
HULIANWANG DIGUI-136    
1 67244U 25311J   26014.98939555 -.00000046  00000+0  80577-4 0  9992
2 67244  50.0111 316.0202 0006836 339.2809  20.7811 13.90230289  2798
CZ-8A R/B               
1 67245U 25311K   26014.97135572 -.00000206  00000+0 -26110-4 0  9991
2 67245  50.0054 313.2372 0088956 151.0807 209.5072 14.12608819  2837
FENGYUN 4C              
1 67246U 25312A   26014.40070308 -.00000303  00000+0  00000+0 0  9998
2 67246   0.0764 241.4707 0002525  48.3090 101.4159  1.00270870   238
CZ-3B R/B               
1 67247U 25312B   26013.30041885  .00172942 -31868-6  51307-3 0  9997
2 67247  28.4106 327.3433 7209820 190.3323 137.2956  2.43501412   424
2025-313A               
1 67248U 25313A   26014.93576669  .00001052  00000+0  10982-3 0  9995
2 67248  97.5632  91.1217 0280556 108.9538 254.2296 14.66793051  2556
2025-313B               
1 67249U 25313B   26014.92976710  .00002526  00000+0  19602-3 0  9991
2 67249  97.5323  91.2012 0297774 113.1942 250.0927 14.73192401  2561
2025-313C               
1 67250U 25313C   26014.93388853  .00008928  00000+0  83609-3 0  9999
2 67250  97.6366  91.7342 0163018 123.2489 238.4469 14.84669828  2580
2025-313D               
1 67251U 25313D   26014.95083372  .00002208  00000+0  19537-3 0  9994
2 67251  97.5877  91.7389 0152369 115.7724 245.9307 14.88739691  2598
ZORKIY-2M-VPE           
1 67252U 25313E   26014.90792962  .00004851  00000+0  21748-3 0  9995
2 67252  97.4118  92.1084 0011122 157.2634 202.9097 15.21640006  2649
AIST-2T 1               
1 67253U 25313F   26014.94857431  .00036572  00000+0  37079-3 0  9992
2 67253  97.1038  92.2779 0010456 175.4984 184.6373 15.65092922  2705
