CCSDS_OMM_VERS = 2.0
CREATION_DATE  = 
ORIGINATOR     = 

OBJECT_NAME    = HULIANWANG DIGUI-134
OBJECT_ID      = 2025-311G
CENTER_NAME    = EARTH
REF_FRAME      = TEME
TIME_SYSTEM    = UTC
MEAN_ELEMENT_THEORY = SGP/SGP4

EPOCH          = 2026-01-14T22:04:25.959360
MEAN_MOTION    = 13.90195421
ECCENTRICITY   = .00066966
INCLINATION    = 50.0053
RA_OF_ASC_NODE = 316.3033
ARG_OF_PERICENTER = 330.2431
MEAN_ANOMALY   = 29.8086

EPHEMERIS_TYPE = 0
CLASSIFICATION_TYPE = U
NORAD_CAT_ID   = 67242
ELEMENT_SET_NO = 999
REV_AT_EPOCH   = 278
BSTAR          = .84742613E-4
MEAN_MOTION_DOT = -.41E-6
MEAN_MOTION_DDOT = 0

CCSDS_OMM_VERS = 2.0
CREATION_DATE  = 
ORIGINATOR     = 

OBJECT_NAME    = HULIANWANG DIGUI-135
OBJECT_ID      = 2025-311H
CENTER_NAME    = EARTH
REF_FRAME      = TEME
TIME_SYSTEM    = UTC
MEAN_ELEMENT_THEORY = SGP/SGP4

EPOCH          = 2026-01-14T23:50:56.926752
MEAN_MOTION    = 13.90184409
ECCENTRICITY   = .0007914
INCLINATION    = 50.0039
RA_OF_ASC_NODE = 316.0244
ARG_OF_PERICENTER = 332.9474
MEAN_ANOMALY   = 27.1011

EPHEMERIS_TYPE = 0
CLASSIFICATION_TYPE = U
NORAD_CAT_ID   = 67243
ELEMENT_SET_NO = 999
REV_AT_EPOCH   = 279
BSTAR          = .77464055E-4
MEAN_MOTION_DOT = -.5E-6
MEAN_MOTION_DDOT = 0

CCSDS_OMM_VERS = 2.0
CREATION_DATE  = 
ORIGINATOR     = 

OBJECT_NAME    = HULIANWANG DIGUI-136
OBJECT_ID      = 2025-311J
CENTER_NAME    = EARTH
REF_FRAME      = TEME
TIME_SYSTEM    = UTC
MEAN_ELEMENT_THEORY = SGP/SGP4

EPOCH          = 2026-01-14T23:44:43.775520
MEAN_MOTION    = 13.90230289
ECCENTRICITY   = .00068362
INCLINATION    = 50.0111
RA_OF_ASC_NODE = 316.0202
ARG_OF_PERICENTER = 339.2809
MEAN_ANOMALY   = 20.7811

EPHEMERIS_TYPE = 0
CLASSIFICATION_TYPE = U
NORAD_CAT_ID   = 67244
ELEMENT_SET_NO = 999
REV_AT_EPOCH   = 279
BSTAR          = .80576878E-4
MEAN_MOTION_DOT = -.46E-6
MEAN_MOTION_DDOT = 0

CCSDS_OMM_VERS = 2.0
CREATION_DATE  = 
ORIGINATOR     = 

OBJECT_NAME    = CZ-8A R/B
OBJECT_ID      = 2025-311K
CENTER_NAME    = EARTH
REF_FRAME      = TEME
TIME_SYSTEM    = UTC
MEAN_ELEMENT_THEORY = SGP/SGP4

EPOCH          = 2026-01-14T23:18:45.134208
MEAN_MOTION    = 14.12608819
ECCENTRICITY   = .00889561
INCLINATION    = 50.0054
RA_OF_ASC_NODE = 313.2372
ARG_OF_PERICENTER = 151.0807
MEAN_ANOMALY   = 209.5072

EPHEMERIS_TYPE = 0
CLASSIFICATION_TYPE = U
NORAD_CAT_ID   = 67245
ELEMENT_SET_NO = 999
REV_AT_EPOCH   = 283
BSTAR          = -.26110271E-4
MEAN_MOTION_DOT = -.206E-5
MEAN_MOTION_DDOT = 0

CCSDS_OMM_VERS = 2.0
CREATION_DATE  = 
ORIGINATOR     = 

OBJECT_NAME    = FENGYUN 4C
OBJECT_ID      = 2025-312A
CENTER_NAME    = EARTH
REF_FRAME      = TEME
TIME_SYSTEM    = UTC
MEAN_ELEMENT_THEORY = SGP/SGP4

EPOCH          = 2026-01-14T09:37:00.746112
MEAN_MOTION    = 1.00270870
ECCENTRICITY   = .00025255
INCLINATION    = 0.0764
RA_OF_ASC_NODE = 241.4707
ARG_OF_PERICENTER = 48.3090
MEAN_ANOMALY   = 101.4159

EPHEMERIS_TYPE = 0
CLASSIFICATION_TYPE = U
NORAD_CAT_ID   = 67246
ELEMENT_SET_NO = 999
REV_AT_EPOCH   = 23
BSTAR          = 0
MEAN_MOTION_DOT = -.303E-5
MEAN_MOTION_DDOT = 0

CCSDS_OMM_VERS = 2.0
CREATION_DATE  = 
ORIGINATOR     = 

OBJECT_NAME    = CZ-3B R/B
OBJECT_ID      = 2025-312B
CENTER_NAME    = EARTH
REF_FRAME      = TEME
TIME_SYSTEM    = UTC
MEAN_ELEMENT_THEORY = SGP/SGP4

EPOCH          = 2026-01-13T07:12:36.188640
MEAN_MOTION    = 2.43501412
ECCENTRICITY   = .720982
INCLINATION    = 28.4106
RA_OF_ASC_NODE = 327.3433
ARG_OF_PERICENTER = 190.3323
MEAN_ANOMALY   = 137.2956

EPHEMERIS_TYPE = 0
CLASSIFICATION_TYPE = U
NORAD_CAT_ID   = 67247
ELEMENT_SET_NO = 999
REV_AT_EPOCH   = 42
BSTAR          = .51307E-3
MEAN_MOTION_DOT = .172942E-2
MEAN_MOTION_DDOT = -.31868E-6

CCSDS_OMM_VERS = 2.0
CREATION_DATE  = 
ORIGINATOR     = 

OBJECT_NAME    = 2025-313A
OBJECT_ID      = 2025-313A
CENTER_NAME    = EARTH
REF_FRAME      = TEME
TIME_SYSTEM    = UTC
MEAN_ELEMENT_THEORY = SGP/SGP4

EPOCH          = 2026-01-14T22:27:30.242016
MEAN_MOTION    = 14.66793051
ECCENTRICITY   = .0280556
INCLINATION    = 97.5632
RA_OF_ASC_NODE = 91.1217
ARG_OF_PERICENTER = 108.9538
MEAN_ANOMALY   = 254.2296

EPHEMERIS_TYPE = 0
CLASSIFICATION_TYPE = U
NORAD_CAT_ID   = 67248
ELEMENT_SET_NO = 999
REV_AT_EPOCH   = 255
BSTAR          = .10982195E-3
MEAN_MOTION_DOT = .1052E-4
MEAN_MOTION_DDOT = 0

CCSDS_OMM_VERS = 2.0
CREATION_DATE  = 
ORIGINATOR     = 

OBJECT_NAME    = 2025-313B
OBJECT_ID      = 2025-313B
CENTER_NAME    = EARTH
REF_FRAME      = TEME
TIME_SYSTEM    = UTC
MEAN_ELEMENT_THEORY = SGP/SGP4

EPOCH          = 2026-01-14T22:18:51.877440
MEAN_MOTION    = 14.73192401
ECCENTRICITY   = .02977747
INCLINATION    = 97.5323
RA_OF_ASC_NODE = 91.2012
ARG_OF_PERICENTER = 113.1942
MEAN_ANOMALY   = 250.0927

EPHEMERIS_TYPE = 0
CLASSIFICATION_TYPE = U
NORAD_CAT_ID   = 67249
ELEMENT_SET_NO = 999
REV_AT_EPOCH   = 256
BSTAR          = .19602107E-3
MEAN_MOTION_DOT = .2526E-4
MEAN_MOTION_DDOT = 0

CCSDS_OMM_VERS = 2.0
CREATION_DATE  = 
ORIGINATOR     = 

OBJECT_NAME    = 2025-313C
OBJECT_ID      = 2025-313C
CENTER_NAME    = EARTH
REF_FRAME      = TEME
TIME_SYSTEM    = UTC
MEAN_ELEMENT_THEORY = SGP/SGP4

EPOCH          = 2026-01-14T22:24:47.968992
MEAN_MOTION    = 14.84669828
ECCENTRICITY   = .01630181
INCLINATION    = 97.6366
RA_OF_ASC_NODE = 91.7342
ARG_OF_PERICENTER = 123.2489
MEAN_ANOMALY   = 238.4469

EPHEMERIS_TYPE = 0
CLASSIFICATION_TYPE = U
NORAD_CAT_ID   = 67250
ELEMENT_SET_NO = 999
REV_AT_EPOCH   = 258
BSTAR          = .83608892E-3
MEAN_MOTION_DOT = .8928E-4
MEAN_MOTION_DDOT = 0

CCSDS_OMM_VERS = 2.0
CREATION_DATE  = 
ORIGINATOR     = 

OBJECT_NAME    = 2025-313D
OBJECT_ID      = 2025-313D
CENTER_NAME    = EARTH
REF_FRAME      = TEME
TIME_SYSTEM    = UTC
MEAN_ELEMENT_THEORY = SGP/SGP4

EPOCH          = 2026-01-14T22:49:12.033408
MEAN_MOTION    = 14.88739691
ECCENTRICITY   = .01523694
INCLINATION    = 97.5877
RA_OF_ASC_NODE = 91.7389
ARG_OF_PERICENTER = 115.7724
MEAN_ANOMALY   = 245.9307

EPHEMERIS_TYPE = 0
CLASSIFICATION_TYPE = U
NORAD_CAT_ID   = 67251
ELEMENT_SET_NO = 999
REV_AT_EPOCH   = 259
BSTAR          = .19537203E-3
MEAN_MOTION_DOT = .2208E-4
MEAN_MOTION_DDOT = 0

CCSDS_OMM_VERS = 2.0
CREATION_DATE  = 
ORIGINATOR     = 

OBJECT_NAME    = ZORKIY-2M-VPE
OBJECT_ID      = 2025-313E
CENTER_NAME    = EARTH
REF_FRAME      = TEME
TIME_SYSTEM    = UTC
MEAN_ELEMENT_THEORY = SGP/SGP4

EPOCH          = 2026-01-14T21:47:25.119168
MEAN_MOTION    = 15.21640006
ECCENTRICITY   = .00111228
INCLINATION    = 97.4118
RA_OF_ASC_NODE = 92.1084
ARG_OF_PERICENTER = 157.2634
MEAN_ANOMALY   = 202.9097

EPHEMERIS_TYPE = 0
CLASSIFICATION_TYPE = U
NORAD_CAT_ID   = 67252
ELEMENT_SET_NO = 999
REV_AT_EPOCH   = 264
BSTAR          = .21747943E-3
MEAN_MOTION_DOT = .4851E-4
MEAN_MOTION_DDOT = 0

CCSDS_OMM_VERS = 2.0
CREATION_DATE  = 
ORIGINATOR     = 

OBJECT_NAME    = AIST-2T 1
OBJECT_ID      = 2025-313F
CENTER_NAME    = EARTH
REF_FRAME      = TEME
TIME_SYSTEM    = UTC
MEAN_ELEMENT_THEORY = SGP/SGP4

EPOCH          = 2026-01-14T22:45:56.820384
MEAN_MOTION    = 15.65092922
ECCENTRICITY   = .00104568
INCLINATION    = 97.1038
RA_OF_ASC_NODE = 92.2779
ARG_OF_PERICENTER = 175.4984
MEAN_ANOMALY   = 184.6373

EPHEMERIS_TYPE = 0
CLASSIFICATION_TYPE = U
NORAD_CAT_ID   = 67253
ELEMENT_SET_NO = 999
REV_AT_EPOCH   = 270
BSTAR          = .37078673E-3
MEAN_MOTION_DOT = .36572E-3
MEAN_MOTION_DDOT = 0

